{"fetched_at":"2026-05-28T21:54:41Z","count":100,"tles":[{"name":"COSMOS 2251 DEB","line1":"1 47053U 93036BXH 26103.63315397  .00000454  00000+0  39378-3 0  9994","line2":"2 47053  74.0558  56.6847 0381735 203.4291 332.4692 13.60005734305459","category":"Other"},{"name":"STARLINK-5966","line1":"1 56919U 23083AV  26147.94780001  .00000799  00000+0  38576-4 0  9992","line2":"2 56919  43.0035 342.7279 0001685 263.0501  97.0159 15.27576425163924","category":"Starlink"},{"name":"CZ-6A DEB","line1":"1 60978U 24140MD  24248.71538542  .00151380  00000+0  67996-2 0  9992","line2":"2 60978  89.7626 351.1244 0259514 315.1990  42.8541 14.95448669  2545","category":"Other"},{"name":"STARLINK-36259","line1":"1 67106U 25299E   26148.15866895  .00021959  00000+0  80473-3 0  9996","line2":"2 67106  42.9998  79.8819 0001305 268.3100  91.7602 15.27595272 25270","category":"Starlink"},{"name":"COSMOS 2251 DEB","line1":"1 37967U 93036BPS 26103.86617414  .00001847  00000+0  50314-3 0  9997","line2":"2 37967  74.0124 270.8682 0148011  20.5663 340.1364 14.41852808664954","category":"Other"},{"name":"GHGSAT-C5","line1":"1 52744U 22057N   26148.18949503  .00007964  00000+0  24419-3 0  9996","line2":"2 52744  97.6656 294.6550 0006850 178.3423 181.7842 15.34038013222477","category":"Other"},{"name":"STARLINK-31272","line1":"1 59162U 24044L   26148.10224061  .00002933  00000+0  11599-3 0  9998","line2":"2 59162  43.0051  18.2960 0001883 263.5088  96.5550 15.27600605125714","category":"Starlink"},{"name":"STARLINK-35036","line1":"1 65406U 25192C   26147.59306135  .00017876  00000+0  61396-3 0  9998","line2":"2 65406  53.1577 225.9273 0001751  62.6524 297.4655 15.30213791 41465","category":"Starlink"},{"name":"STARLINK-32733","line1":"1 62477U 24254R   26147.78283283  .00024747  00000+0  90563-3 0  9993","line2":"2 62477  42.9999 289.3127 0000043 242.3411 117.7436 15.27585120 79759","category":"Starlink"},{"name":"STARLINK-36958","line1":"1 68163U 26049X   26148.04779909  .00024062  00000+0  74510-3 0  9994","line2":"2 68163  97.2849 169.5837 0001253 123.6072 236.5291 15.33452172 11807","category":"Starlink"},{"name":"SIRIO","line1":"1 10294U 77080A   26105.10068625 -.00000106  00000+0  00000+0 0  9996","line2":"2 10294   7.3644 299.6422 0006061 149.4912 225.9519  1.00270849117293","category":"Other"},{"name":"IRIDIUM 33 DEB","line1":"1 40994U 97051ABG 23136.95418629  .00053028  00000+0  38191-2 0  9998","line2":"2 40994  86.3816  18.7779 0000994  30.3820 329.7472 15.03951669462266","category":"Other"},{"name":"STARLINK-4688","line1":"1 53714U 22107Q   23361.90063562  .00002191  00000+0  15571-3 0  9992","line2":"2 53714  53.2147 232.7607 0001482  92.8209 267.2952 15.08842792 73566","category":"Starlink"},{"name":"STARLINK-32199","line1":"1 60320U 24133V   26147.80028681  .00001008  00000+0  46158-4 0  9993","line2":"2 60320  53.1608 289.5182 0001019  82.9532 277.1585 15.30202297103753","category":"Starlink"},{"name":"STARLINK-35448","line1":"1 66465U 25262K   26146.56337281  .00010165  00000+0  37864-3 0  9991","line2":"2 66465  43.0009 216.5989 0000660 270.9152  89.1624 15.27557377 30814","category":"Starlink"},{"name":"FENGYUN 1C DEB","line1":"1 31732U 99025CEF 26103.37466396  .00000391  00000+0  23300-3 0  9990","line2":"2 31732  98.5559 137.7685 0038917 257.8206 101.8606 14.12419027660470","category":"Weather"},{"name":"ONEWEB-0172","line1":"1 48071U 21025AF  26148.03943279 -.00000109  00000+0 -33238-3 0  9991","line2":"2 48071  87.8948 324.2332 0001602  93.6691 266.4621 13.13469044251862","category":"Other"},{"name":"SHIYAN-27 OBJECT D","line1":"1 63602U 25078D   26148.24420221  .00000000  00000+0  61492-4 0  9992","line2":"2 63602  99.6926 155.7802 0001179  89.2001 270.9273 13.57246997 54828","category":"Other"},{"name":"STARLINK-5858","line1":"1 75858C 23094AY  23189.75118056  .00514745  00000-0  73730-3 0  1897","line2":"2 75858  42.9952 313.6273 0076770 152.2180 321.2157 15.98256211    19","category":"Starlink"},{"name":"COSMOS 2398","line1":"1 27818U 03023A   26105.20403307  .00000062  00000+0  51129-4 0  9996","line2":"2 27818  82.9516 181.7265 0032589 128.6056 260.6404 13.72399094145104","category":"Other"},{"name":"STARLINK-1122","line1":"1 44949U 20001AM  26147.74276858  .00070379  00000+0  11303-2 0  9995","line2":"2 44949  53.1561 307.4364 0003122 289.2752  70.7921 15.52411559352401","category":"Starlink"},{"name":"STARLINK-5697","line1":"1 55589U 23020W   26147.61753801  .00001561  00000+0  66283-4 0  9991","line2":"2 55589  43.0049 279.4705 0001631 277.6055  82.4612 15.27567396180981","category":"Starlink"},{"name":"COSMOS 2251 DEB","line1":"1 34907U 93036ADC 26005.00762490  .03481461  00000+0  13025-1 0  9993","line2":"2 34907  73.9537 356.6519 0006233 178.9909 181.1335 15.84092089883356","category":"Other"},{"name":"TIANHUI 4A","line1":"1 50572U 21134A   26148.16538647  .00007213  00000+0  14608-3 0  9995","line2":"2 50572  88.9699 325.5784 0010049 133.8138 226.3954 15.46191417246771","category":"Other"},{"name":"SL-4 R/B","line1":"1 58149U 23165B   23330.55812009  .00157114  93492-5  71927-3 0  9995","line2":"2 58149  67.1417  24.6668 0428650  63.5286 300.9161 15.12432807  4571","category":"Other"},{"name":"STARLINK-11707 [DTC]","line1":"1 64328U 25124M   26147.71320306  .00177594  00000+0  13552-2 0  9999","line2":"2 64328  43.0024 272.8022 0002250 278.0952  81.9660 15.70890942 55266","category":"Starlink"},{"name":"FENGYUN 1C DEB","line1":"1 30862U 99025AWY 26104.24385269  .00004958  00000+0  13840-2 0  9999","line2":"2 30862  98.9527 206.5031 0052521 157.0268 232.7744 14.45905201984889","category":"Weather"},{"name":"SPACEBEE-170","line1":"1 56983U 23084BD  23361.81452318  .00030461  00000+0  13156-2 0  9996","line2":"2 56983  97.5290 117.0925 0012236 240.8905 119.1107 15.22376950 30027","category":"Other"},{"name":"STARLINK-32350","line1":"1 61063U 24164P   26148.20064747  .00000072  00000+0  14082-4 0  9991","line2":"2 61063  53.1614  81.6156 0001059  86.9963 273.1160 15.31701347 95658","category":"Starlink"},{"name":"STARLINK-35863","line1":"1 67170U 25303H   26148.21031275  .00022542  00000+0  82583-3 0  9999","line2":"2 67170  43.0002 221.9012 0001442 261.3162  98.7526 15.27593649 24892","category":"Starlink"},{"name":"FENGYUN 1C DEB","line1":"1 38127U 99025EPY 23173.57085219  .00003263  00000+0  11052-2 0  9993","line2":"2 38127  98.9843 105.1597 0058814 252.1412 107.3352 14.36524635772696","category":"Weather"},{"name":"STARLINK-4212","line1":"1 52846U 22062S   26148.08091167  .00000000  00000+0  18107-4 0  9990","line2":"2 52846  53.2048  37.7260 0001749  57.7943 302.3218 15.08837549217773","category":"Starlink"},{"name":"CZ-2C R/B","line1":"1 59229U 24048B   24089.85296800  .11104148 -74133-5  13511-3 0  9994","line2":"2 59229  28.4841 253.5373 0135954 300.8962 175.3088 16.26174521  2503","category":"Other"},{"name":"STARLINK-34799","line1":"1 65472U 25195Q   26147.55295732  .00040599  00000+0  12057-2 0  9997","line2":"2 65472  53.1605 251.4735 0001487  86.2317 273.8856 15.34412451 42050","category":"Starlink"},{"name":"STARLINK-11536 [DTC]","line1":"1 62563U 25006K   26147.97607066  .00178129  00000+0  13593-2 0  9996","line2":"2 62563  43.0039  21.8442 0003142 287.0511  73.0012 15.70886796 79071","category":"Starlink"},{"name":"STARLINK-37083","line1":"1 68227U 26053W   26148.11259264  .00025813  00000+0  79823-3 0  9992","line2":"2 68227  97.2868  23.5797 0001434  88.4729 271.6678 15.33481374 12368","category":"Starlink"},{"name":"EKRAN 6","line1":"1 12120U 80104A   26105.16737316  .00000093  00000+0  00000+0 0  9997","line2":"2 12120   6.3955 291.2314 0007190  70.1844 314.3809  1.00261417126783","category":"Other"},{"name":"STARLINK-4710","line1":"1 53799U 22111AC  26147.63655497  .00001076  00000+0  85680-4 0  9999","line2":"2 53799  53.2038 269.7827 0001412  88.6411 271.4743 15.08840442205734","category":"Starlink"},{"name":"QIANFAN-10","line1":"1 60388U 24140K   26148.18319565  .00000095  00000+0  12775-3 0  9993","line2":"2 60388  88.9732 281.4338 0016133  60.2102 300.0651 13.51012345 89937","category":"Other"},{"name":"STARLINK-35933","line1":"1 66529U 25265P   26148.16053867  .00028601  00000+0  10447-2 0  9999","line2":"2 66529  43.0027 189.4560 0001436 237.2431 122.8282 15.27584270 29260","category":"Starlink"},{"name":"FENGYUN 1C DEB","line1":"1 31826U 99025CHQ 26101.44469333  .00000501  00000+0  23939-3 0  9995","line2":"2 31826  98.6371  94.5484 0123205 203.8007 310.9818 14.19531883975120","category":"Weather"},{"name":"STARLINK-2487","line1":"1 48144U 21027BE  26148.17326427  .00008170  00000+0  27463-3 0  9996","line2":"2 48144  53.1596 142.8064 0001463  79.5004 280.6162 15.31713523284859","category":"Starlink"},{"name":"HULIANWANG DIGUI-21","line1":"1 63688U 25086B   26148.16309412  .00000046  00000+0  71917-4 0  9997","line2":"2 63688  86.5062 319.9331 0001418  80.3930 279.7364 13.24407953 52212","category":"Other"},{"name":"STARLINK-6162","line1":"1 76162C 23090AG  23185.64562500 -.00981827  00000-0 -59593-2 0  1850","line2":"2 76162  43.0002 215.0945 0001261 263.7031 357.9345 15.77529759    15","category":"Starlink"},{"name":"APRIZESAT 2","line1":"1 28366U 04025A   26148.17612514  .00000161  00000+0  63614-4 0  9995","line2":"2 28366  98.0997 315.2911 0104565 310.9788  48.2390 14.38027799148760","category":"Other"},{"name":"STARLINK-1136","line1":"1 45089U 20006AX  23361.90924644  .00011592  00000+0  79554-3 0  9997","line2":"2 45089  53.0537 250.5235 0001606 117.5220 242.5932 15.06413600216039","category":"Starlink"},{"name":"STARLINK-5307","line1":"1 55658U 23021AG  26147.92964076 -.00000088  00000+0  38176-6 0  9997","line2":"2 55658  69.9996 344.5483 0002862 269.2246  90.8585 14.98329096180666","category":"Starlink"},{"name":"IRIDIUM 33 DEB","line1":"1 35049U 97051NV  23178.54636145  .00031277  00000+0  38959-2 0  9993","line2":"2 35049  86.3608  10.0172 0020422 310.5830  49.3614 14.82182587751764","category":"Other"}]}